#dP2024  8 26  0  0  0.00000000      96 __u+U IGS20 FIT  IAC
## 2329  86400.00000000   900.00000000 60548 0.0000000000000
+   53   G01G02G03G04G05G06G07G08G09G10G11G12G13G14G15G16G17
+        G18G19G20G21G22G23G24G25G26G27G28G29G30G31G32R02R03
+        R04R05R07R08R09R11R12R14R15R16R17R18R19R20R21R22R24
+        R25R26  0  0  0  0  0  0  0  0  0  0  0  0  0  0  0
+          0  0  0  0  0  0  0  0  0  0  0  0  0  0  0  0  0
++        10  6  6  6  8  7  6  5  7  7  7  7  5  7  7  5  7
++         7  8  4  7  5  6  5  7  8  6  6  7  5  6  8  6  7
++         7  6  5  6  5  5  6  6  7  5  7  6  9  9  8  7  8
++         7  6  0  0  0  0  0  0  0  0  0  0  0  0  0  0  0
++         0  0  0  0  0  0  0  0  0  0  0  0  0  0  0  0  0
%c M  cc GPS ccc cccc cccc cccc cccc ccccc ccccc ccccc ccccc
%c cc cc ccc ccc cccc cccc cccc cccc ccccc ccccc ccccc ccccc
%f  0.0000000  0.000000000  0.00000000000  0.000000000000000
%f  0.0000000  0.000000000  0.00000000000  0.000000000000000
%i    0    0    0    0      0      0      0      0         0
%i    0    0    0    0      0      0      0      0         0
/* INFORMATION & ANALYSIS CENTER (IAC)      ULTRA-RAPID DATA
/* S/V CLOCKS ARE ALIGNED TO GNSS TIME                      
/* G:C1WC2W R:C1PC2P E:C1XC5X C:C2IC6I J:C1CC2S             
/* PCV:IGS20_2317 OL/AL:FES2004  NONE     YN ORB:CoN CLK:CoN
*  2024 08 26  5  0  0.00000000
PG01  24441.584565   8332.457154  -7284.361617    212.749858
PG02  14412.479600 -22089.416136   1061.317460   -371.374408
PG03   9888.084679 -12942.888538 -21122.178910    514.280584
PG04   3543.164121 -20908.011549 -15889.882201    431.420904
PG05 -23666.973808   5691.353801  10528.393266   -184.456713
PG06 -13274.896746  -6439.357422 -22028.393249     74.053662
PG07   1205.386585 -21172.045850  16227.818595    -46.274999
PG08  11356.898635 -11103.277185  21116.524672    329.588517
PG09  -6232.883354 -24857.073080  -6954.545999    329.595686
PG10  21280.301933  10660.239046  12341.020715   -105.123122
PG11 -20015.055002   7418.792011 -15735.926205   -726.652567
PG12 -13887.789657  11492.811166 -19769.741018   -533.223706
PG13 -14871.528181   1807.254419  21721.888516    672.949323
PG14 -18008.152406 -13128.968341  14660.080602    480.983516
PG15  -9688.705755  12928.938569  20541.478437    196.873746
PG16  25729.615918     85.540687   7124.611653   -198.411556
PG17 -13515.883431 -21227.107538  -7806.606190    644.966881
PG18  -1700.496583  20647.736821  16510.307731   -649.049785
PG19 -15979.988393 -14914.717373 -15534.525902    529.594502
PG20 -26423.810223   1653.327768   -173.078369    371.293397
PG21  16747.675671 -18918.487661   6552.768374    102.918032
PG22 -22896.157915 -10566.872109   8253.638939    -55.258443
PG23   9626.465158  14408.901141  20217.107279    305.775397
PG24 -14602.008334  21790.034699   1912.216351   -486.664928
PG25   -671.039539  15620.821306 -21815.606006    499.455476
PG26  25713.693781   4954.877280  -5665.316919     92.818839
PG27  16317.065088   1010.324214  20722.645882    -33.433711
PG28  12413.021577   8775.598137 -21790.861978   -387.018539
PG29   1539.533946  24614.953403  -9737.902466   -581.857328
PG30  -8199.472908 -14607.934327  20711.683350   -333.220678
PG31  19045.159195  -3069.856475 -18645.775831   -225.462257
PG32  15611.833817  19579.291018  -8936.589090   -602.863601
PR02   3421.469400  16427.446767  19277.925177    -24.319677
PR03  15949.587476  19365.538323   4828.667865    106.334009
PR04  19165.740938  11937.534167 -11861.626432    251.672977
PR05  12365.284776  -1938.624350 -22225.358004    136.676528
PR07 -16223.549951 -19206.776662  -4107.022783     89.565214
PR08 -19278.397095 -11465.492131  12165.873812     -6.389545
PR09   8958.330805 -13035.077492  20007.311329    205.513762
PR11 -21853.155512   -496.881599  13178.521174     13.659310
PR12 -23029.374251   9151.383843  -5995.502357     44.075055
PR14   9180.182009   8633.550651 -22156.470462     26.852232
PR15  22677.975707   -258.167509 -11641.430963     76.482262
PR16  23049.443471  -9156.032186   5894.139512     28.584659
PR17   2923.268470  18635.828093  17151.158862    116.496069
PR18   9980.029653   3344.698816  23250.535007    158.873578
PR19  12685.764052 -11839.366115  18702.931922   -288.988807
PR20   7916.461580 -24231.967033   -206.505576   -118.206218
PR21  -2332.798344 -19145.968816 -16713.819257   -129.096005
PR22 -10682.416053  -2382.127517 -23014.143933     61.582786
PR24  -6518.168872  24634.662273    782.232747    -69.371426
PR25  -2583.385190 -18623.534138 -17247.716191   -100.976836
PR26 -19513.839106 -12434.154725  10774.240895     12.230561
*  2024 08 26  5 15  0.00000000
PG01  23496.458046   8467.437844  -9878.233532    212.742516
PG02  14519.572816 -21756.324486   3930.556725   -371.367537
PG03  12191.568533 -12680.115669 -20031.361417    514.293521
PG04   4459.786611 -19202.755637 -17717.651255    431.427594
PG05 -24736.384555   5458.214261   7922.415906   -184.457903
PG06 -11809.962994  -8507.023893 -22151.130871     74.031246
PG07   2333.849742 -22430.428808  14181.216650    -46.270191
PG08  12547.314460  -8938.746484  21503.092913    329.601096
PG09  -5592.087558 -24130.970088  -9595.389825    329.609818
PG10  19778.886751  10660.805053  14633.194592   -105.133468
PG11 -18985.789175   5799.104079 -17585.573804   -726.657019
PG12 -15977.521699  11060.681256 -18364.061193   -533.226279
PG13 -15593.686842   -590.515687  21303.810753    672.951201
PG14 -16220.808461 -13140.690828  16593.168451    480.991362
PG15 -11147.542274  10904.935848  20976.433572    196.878164
PG16  26374.328740    413.917893   4395.540212   -198.402314
PG17 -13584.890169 -22049.836002  -5056.500992    644.957914
PG18  -2866.352963  21995.446796  14461.420734   -649.052266
PG19 -16377.797966 -16486.935389 -13396.580119    529.599105
PG20 -26262.380802   1351.742563  -3018.122960    371.292935
PG21  16584.040559 -17999.686061   9270.647438    102.917785
PG22 -21822.021631 -10631.192538  10835.599762    -55.261864
PG23   7271.942716  14347.396596  21202.696493    305.783189
PG24 -14710.829572  21236.575707   4703.734873   -486.665157
PG25  -3087.540097  15455.586146 -21700.177478    499.455673
PG26  24939.672880   5250.650544  -8285.508270     92.811826
PG27  17285.186945   3169.601029  19747.501163    -33.434012
PG28  11059.281097  10852.436127 -21583.318470   -387.031546
PG29    895.693532  23520.116800 -12229.203998   -581.854967
PG30  -6802.037072 -16440.665063  19793.731907   -333.214417
PG31  17869.554640  -1259.823179 -19954.532121   -225.461597
PG32  15802.589682  20477.938182  -6268.493744   -602.860773
PR02   1710.514755  14646.824334  20872.064362    -24.319503
PR03  15494.604467  18711.563207   7918.855405    106.335217
PR04  20204.875762  12718.966187  -8982.492528    251.674471
PR05  14326.993270   -117.296560 -21105.795618    136.677608
PR07 -15818.778285 -18608.592878  -7231.090364     89.565928
PR08 -20333.428961 -12269.752059   9314.305091     -6.389493
PR09  11179.910677 -13827.370480  18273.552205    205.515733
PR11 -20121.534764   -913.642306  15677.708946     13.658236
PR12 -23517.992866   9434.383073  -2850.066514     44.075683
PR14   6525.738790   9442.143242 -22760.608322     26.852879
PR15  21112.838107    106.355252 -14283.049580     76.482113
PR16  23513.486467  -9453.770047   2733.867013     28.584608
PR17   2583.049813  20585.457137  14812.154446    116.498766
PR18   9282.867843   6110.131677  22978.380343    158.875513
PR19  11892.052341  -9550.796247  20450.133459   -288.991002
PR20   7657.298677 -24127.027816   3035.435745   -118.206896
PR21  -2006.147269 -21039.318130 -14310.401941   -129.098753
PR22  -9908.782761  -5115.496367 -22914.614723     61.575393
PR24  -6346.614803  24569.582425  -2432.285425    -69.372679
PR25  -2137.862407 -20563.081194 -14956.260935   -100.976965
PR26 -20453.344301 -13107.121198   7828.738380     12.234722
EOF
